#aV2020 12  9  0  0  0.00000000     288 DD+AD WGS84 FIT  NGA
## 2135 259200.00000000   300.00000000 59192 0.0000000000000
+   32     1  2  3  4  5  6  7  8  9 10 11 12 13 14 15 16 17
+         18 19 20 21 22 23 24 25 26 27 28 29 30 31 32  0  0
+          0  0  0  0  0  0  0  0  0  0  0  0  0  0  0  0  0
+          0  0  0  0  0  0  0  0  0  0  0  0  0  0  0  0  0
+          0  0  0  0  0  0  0  0  0  0  0  0  0  0  0  0  0
++         2  2  2  2  2  2  2  2  2  2  2  2  2  2  2  2  2
++         2  2  2  2  2  2  2  2  2  2  2  2  2  2  2  0  0
++         0  0  0  0  0  0  0  0  0  0  0  0  0  0  0  0  0
++         0  0  0  0  0  0  0  0  0  0  0  0  0  0  0  0  0
++         0  0  0  0  0  0  0  0  0  0  0  0  0  0  0  0  0
%c cc cc ccc ccc cccc cccc cccc cccc ccccc ccccc ccccc ccccc
%c cc cc ccc ccc cccc cccc cccc cccc ccccc ccccc ccccc ccccc
%f  0.0000000  0.000000000  0.00000000000  0.000000000000000
%f  0.0000000  0.000000000  0.00000000000  0.000000000000000
%i    0    0    0    0      0      0      0      0         0
%i    0    0    0    0      0      0      0      0         0
/*      NGA, ST. LOUIS,MO.                                  
/*   EPHEMERIS COMPUTED FROM 2 DAYS OF DATA                 
/*   EPOCHA v5 SMOOTHER                                     
/*   G1762 IERS2010 SATAF SATAPC                            
*  2020 12  9 19  0  0.00000000
P  1 -21169.009748 -13033.971864   9569.489333    797.963631                    
V  1  -7268.890923 -10147.288338 -28853.269889     -0.049735                    
P  2  11865.576454  21241.754681  11307.114700   -552.451392                    
V  2 -11449.117364  -7269.498789  27256.637299     -0.044980                    
P  3 -14528.132260  -3852.900124  21815.318651    -25.502959                    
V  3   7611.061356 -26817.620990    427.150528     -0.099847                    
P  4 -24320.108742  -2289.065844  10485.291518   -162.845805                    
V  4  12484.120264  -5203.776749  27780.086597     -0.033930                    
P  5   4713.001889  22075.022517 -14005.587282    -27.939591                    
V  5  -6583.069304  16509.934823  24249.997648     -0.009544                    
P  6  -1504.439832  17573.657050  19906.315548     -3.594593                    
V  6 -18102.601810 -17407.708211  14081.661889     -0.008307                    
P  7 -17688.724362   1570.068744 -19567.366477   -430.625293                    
V  7 -16704.227511 -19229.223178  12857.297975     -0.074457                    
P  8 -18762.491793  -7388.170172 -17420.635131     -2.290368                    
V  8  20906.494726  -7035.962351 -19243.896302     -0.013501                    
P  9 -25486.023251   7467.166391   -896.062686   -299.444440                    
V  9  -1816.163127  -2685.835010  31531.938473     -0.044920                    
P 10  11682.831596 -22479.370251  -7414.051475    -12.140943                    
V 10    -35.472751   9973.055515 -30164.889038     -0.088595                    
P 11 -23102.194330 -11855.275060  -5031.182851    -85.922154                    
V 11   7048.790439  -2292.921087 -30013.979218      0.105570                    
P 12  12672.810420   8062.989058  21678.428521     29.190819                    
V 12  -9828.959354  26261.192399  -3830.045369     -0.051899                    
P 13   9368.377829  13499.457159 -21027.535542     73.309278                    
V 13 -26087.982214   3695.458630  -9196.126905      0.039685                    
P 14 -13876.873966  20626.962885  -9355.586261     58.931797                    
V 14   1344.960327 -12078.162752 -28640.360245      0.114004                    
P 15  20252.096031   5836.519872 -16728.389428   -184.411304                    
V 15 -18527.589514   9111.125800 -19305.000262      0.026013                    
P 16  -2064.562280 -22021.932928 -14577.096966   -248.024915                    
V 16   8444.336331 -16332.533153  24291.723774     -0.054085                    
P 17 -15340.753206  14244.622591  16764.835957    364.859889                    
V 17 -20315.278589   2507.142323 -21297.454904      0.049550                    
P 18  16059.134290  -3805.065995 -20828.752672    330.792857                    
V 18  17331.678491  19932.804854   9668.875264      0.039679                    
P 19  -8722.682254  14735.013263  19997.456935    -67.491842                    
V 19 -25874.261867   2653.507402 -13134.786401      0.050143                    
P 20  14820.077285 -13431.007386 -17413.681535    525.679700                    
V 20   -866.701106  22255.339998 -18236.210655     -0.001572                    
P 21 -20932.975014 -16609.151660   2326.906140     76.074173                    
V 21    226.784210  -3302.744601 -31217.189407      0.035494                    
P 22 -12590.483060 -12720.959357  19864.508752   -717.821551                    
V 22   5851.434379 -24194.352890 -11743.564022      0.058971                    
P 23  15341.082253 -14557.313450 -16076.885160    108.654968                    
V 23  -3290.790285  20191.480445 -21490.977092      0.032552                    
P 24  21761.625078  14635.858599   5134.468854      5.371218                    
V 24   2849.857001   6913.804306 -30037.432840     -0.005011                    
P 25  16141.384453  -6726.541827  19664.791449     36.830321                    
V 25  -5745.957014  24964.368043  13359.622424      0.070457                    
P 26   4134.880665 -25933.511361  -2948.501266     11.840099                    
V 26   4314.435539  -2790.491469  31251.078243      0.059257                    
P 27  -6610.228790 -13645.563534 -21981.673627    -31.346757                    
V 27  26630.277187  -6761.820899  -3494.801449     -0.080866                    
P 28 -12543.760132  22852.046481  -4977.868475    645.249503                    
V 28    461.458956  -7349.047954 -31121.296526     -0.049016                    
P 29  26241.342977  -4222.530428    550.907559   -252.783815                    
V 29   -381.856668   2116.131065  32236.757470     -0.075041                    
P 30 -10376.766956  11850.332479 -21330.430322   -349.567948                    
V 30 -18632.484196 -19944.973954  -2227.665926     -0.063805                    
P 31     76.070811 -18995.724537  18298.070756    -86.573705                    
V 31  17284.366308  16113.745033  17053.952984     -0.023563                    
P 32  14355.701926 -15443.049800  16139.470030      6.906520                    
V 32  20278.061716  -3094.451016 -21270.320954      0.027140                    
EOF
